YAOGAN-30 06C           
1 44451U 19045C   26068.85043463  .00004352  00000+0  32596-3 0  9993
2 44451  34.9925 214.7382 0001081 261.6749  98.3837 15.02172666361604
STARLINK-5739           
1 55571U 23020C   26068.14508326  .00000075  00000+0  20626-4 0  9992
2 55571  43.0046   7.9200 0000829 285.7649  74.3102 15.02532576168839
